start=new Date('2022-08-12T00:00:00.000Z').valueOf();
sats=[{"CLASSIFICATION_TYPE":"U","RA_OF_ASC_NODE":"160.9625","BSTAR":"-0.00066145000000","FILE":"3534739","RCS_SIZE":"LARGE","MEAN_ELEMENT_THEORY":"SGP4","TIME_SYSTEM":"UTC","MEAN_ANOMALY":"209.9372","NORAD_CAT_ID":"52469","INCLINATION":"53.2158","PERIAPSIS":"538.003","LAUNCH_DATE":"2022-05-06","REV_AT_EPOCH":"1528","OBJECT_TYPE":"PAYLOAD","CENTER_NAME":"EARTH","MEAN_MOTION_DOT":"-0.00010806","MEAN_MOTION":"15.08859858","ARG_OF_PERICENTER":"59.5789","EPHEMERIS_TYPE":"0","SITE":"AFETR","GP_ID":"210041100","EPOCH":"2022-08-11T22:00:00.999936","TLE_LINE1":"1 52469U 22049R   22223.91667824 -.00010806  00000-0 -66145-3 0  9999","SEMIMAJOR_AXIS":"6917.820","ECCENTRICITY":"0.00024310","TLE_LINE2":"2 52469  53.2158 160.9625 0002431  59.5789 209.9372 15.08859858 15289","REF_FRAME":"TEME","MEAN_MOTION_DDOT":"0.0000000000000","OBJECT_ID":"2022-049U","OBJECT_NAME":"STARLINK-3828","ELEMENT_SET_NO":"999","DECAY_DATE":null,"PERIOD":"95.436","COUNTRY_CODE":"US","APOAPSIS":"541.366"},{"SITE":"AFETR","EPHEMERIS_TYPE":"0","ARG_OF_PERICENTER":"64.5317","MEAN_MOTION":"15.08856457","MEAN_MOTION_DOT":"-0.00011515","OBJECT_TYPE":"PAYLOAD","CENTER_NAME":"EARTH","TLE_LINE1":"1 52470U 22049V   22223.91667824 -.00011515  00000-0 -70619-3 0  9990","EPOCH":"2022-08-11T22:00:00.999936","GP_ID":"210042445","INCLINATION":"53.2175","NORAD_CAT_ID":"52470","MEAN_ANOMALY":"284.9705","TIME_SYSTEM":"UTC","MEAN_ELEMENT_THEORY":"SGP4","FILE":"3534798","RCS_SIZE":"LARGE","BSTAR":"-0.00070619000000","RA_OF_ASC_NODE":"160.9571","CLASSIFICATION_TYPE":"U","LAUNCH_DATE":"2022-05-06","REV_AT_EPOCH":"1528","PERIAPSIS":"538.194","ELEMENT_SET_NO":"999","OBJECT_NAME":"STARLINK-3859","APOAPSIS":"541.196","COUNTRY_CODE":"US","DECAY_DATE":null,"PERIOD":"95.437","ECCENTRICITY":"0.00021700","SEMIMAJOR_AXIS":"6917.830","OBJECT_ID":"2022-049V","MEAN_MOTION_DDOT":"0.0000000000000","REF_FRAME":"TEME","TLE_LINE2":"2 52470  53.2175 160.9571 0002170  64.5317 284.9705 15.08856457 15288"},{"OBJECT_NAME":"STARLINK-3862","ELEMENT_SET_NO":"999","DECAY_DATE":null,"PERIOD":"95.437","APOAPSIS":"541.341","COUNTRY_CODE":"US","SEMIMAJOR_AXIS":"6917.859","ECCENTRICITY":"0.00023370","MEAN_MOTION_DDOT":"0.0000000000000","REF_FRAME":"TEME","TLE_LINE2":"2 52471  53.2156 160.9632 0002337  65.2742 224.2944 15.08846888 15280","OBJECT_ID":"2022-049W","MEAN_MOTION":"15.08846888","OBJECT_TYPE":"PAYLOAD","CENTER_NAME":"EARTH","MEAN_MOTION_DOT":"-0.00010773","SITE":"AFETR","EPHEMERIS_TYPE":"0","ARG_OF_PERICENTER":"65.2742","GP_ID":"210041209","EPOCH":"2022-08-11T22:00:00.999936","TLE_LINE1":"1 52471U 22049W   22223.91667824 -.00010773  00000-0 -65959-3 0  9997","RCS_SIZE":"LARGE","FILE":"3534744","BSTAR":"-0.00065959000000","RA_OF_ASC_NODE":"160.9632","CLASSIFICATION_TYPE":"U","INCLINATION":"53.2156","NORAD_CAT_ID":"52471","MEAN_ANOMALY":"224.2944","TIME_SYSTEM":"UTC","MEAN_ELEMENT_THEORY":"SGP4","REV_AT_EPOCH":"1528","LAUNCH_DATE":"2022-05-06","PERIAPSIS":"538.108"},{"APOAPSIS":"541.263","COUNTRY_CODE":"US","DECAY_DATE":null,"PERIOD":"95.437","ELEMENT_SET_NO":"999","OBJECT_NAME":"STARLINK-3881","OBJECT_ID":"2022-049X","REF_FRAME":"TEME","MEAN_MOTION_DDOT":"0.0000000000000","TLE_LINE2":"2 52472  53.2178 160.9516 0002235  61.5583 307.9839 15.08849193 15289","ECCENTRICITY":"0.00022350","SEMIMAJOR_AXIS":"6917.852","TLE_LINE1":"1 52472U 22049X   22223.91667824 -.00010717  00000-0 -65606-3 0  9995","EPOCH":"2022-08-11T22:00:00.999936","GP_ID":"210041123","EPHEMERIS_TYPE":"0","SITE":"AFETR","ARG_OF_PERICENTER":"61.5583","MEAN_MOTION":"15.08849193","OBJECT_TYPE":"PAYLOAD","CENTER_NAME":"EARTH","MEAN_MOTION_DOT":"-0.00010717","REV_AT_EPOCH":"1528","LAUNCH_DATE":"2022-05-06","PERIAPSIS":"538.171","MEAN_ANOMALY":"307.9839","INCLINATION":"53.2178","NORAD_CAT_ID":"52472","TIME_SYSTEM":"UTC","MEAN_ELEMENT_THEORY":"SGP4","FILE":"3534741","RCS_SIZE":"LARGE","BSTAR":"-0.00065606000000","CLASSIFICATION_TYPE":"U","RA_OF_ASC_NODE":"160.9516"},{"SEMIMAJOR_AXIS":"6917.841","ECCENTRICITY":"0.00023380","MEAN_MOTION_DDOT":"0.0000000000000","REF_FRAME":"TEME","TLE_LINE2":"2 52473  53.2172 160.9648 0002338  60.4662 269.0532 15.08852932 15283","OBJECT_ID":"2022-049Y","OBJECT_NAME":"STARLINK-3879","ELEMENT_SET_NO":"999","DECAY_DATE":null,"PERIOD":"95.437","APOAPSIS":"541.323","COUNTRY_CODE":"US","FILE":"3534743","BSTAR":"-0.00062582000000","RCS_SIZE":"LARGE","RA_OF_ASC_NODE":"160.9648","CLASSIFICATION_TYPE":"U","INCLINATION":"53.2172","NORAD_CAT_ID":"52473","MEAN_ANOMALY":"269.0532","MEAN_ELEMENT_THEORY":"SGP4","TIME_SYSTEM":"UTC","REV_AT_EPOCH":"1528","LAUNCH_DATE":"2022-05-06","PERIAPSIS":"538.088","MEAN_MOTION":"15.08852932","CENTER_NAME":"EARTH","OBJECT_TYPE":"PAYLOAD","MEAN_MOTION_DOT":"-0.00010238","SITE":"AFETR","EPHEMERIS_TYPE":"0","ARG_OF_PERICENTER":"60.4662","EPOCH":"2022-08-11T22:00:00.999936","GP_ID":"210041211","TLE_LINE1":"1 52473U 22049Y   22223.91667824 -.00010238  00000-0 -62582-3 0  9994"},{"PERIAPSIS":"538.750","REV_AT_EPOCH":"130","LAUNCH_DATE":"2022-05-06","MEAN_ELEMENT_THEORY":"SGP4","TIME_SYSTEM":"UTC","INCLINATION":"53.2125","NORAD_CAT_ID":"52474","MEAN_ANOMALY":"202.2082","RA_OF_ASC_NODE":"152.4604","CLASSIFICATION_TYPE":"U","BSTAR":"0.00065921000000","FILE":"3534319","RCS_SIZE":"LARGE","TLE_LINE1":"1 52474U 22049Z   22223.58334491  .00010220  00000-0  65921-3 0  9998","GP_ID":"210030539","EPOCH":"2022-08-11T14:00:01.000224","ARG_OF_PERICENTER":"50.6670","SITE":"AFETR","EPHEMERIS_TYPE":"0","MEAN_MOTION_DOT":"0.00010220","OBJECT_TYPE":"PAYLOAD","CENTER_NAME":"EARTH","MEAN_MOTION":"15.08844293","OBJECT_ID":"2022-049Z","TLE_LINE2":"2 52474  53.2125 152.4604 0001420  50.6670 202.2082 15.08844293  1309","MEAN_MOTION_DDOT":"0.0000000000000","REF_FRAME":"TEME","ECCENTRICITY":"0.00014200","SEMIMAJOR_AXIS":"6917.867","COUNTRY_CODE":"US","APOAPSIS":"540.715","DECAY_DATE":null,"PERIOD":"95.437","ELEMENT_SET_NO":"999","OBJECT_NAME":"STARLINK-3855"},{"OBJECT_ID":"2022-049AA","TLE_LINE2":"2 52475  53.2176 160.9521 0002384  62.8924 301.4670 15.08852144 15286","MEAN_MOTION_DDOT":"0.0000000000000","REF_FRAME":"TEME","ECCENTRICITY":"0.00023840","SEMIMAJOR_AXIS":"6917.843","COUNTRY_CODE":"US","APOAPSIS":"541.357","DECAY_DATE":null,"PERIOD":"95.437","ELEMENT_SET_NO":"999","OBJECT_NAME":"STARLINK-3882","PERIAPSIS":"538.059","REV_AT_EPOCH":"1528","LAUNCH_DATE":"2022-05-06","TIME_SYSTEM":"UTC","MEAN_ELEMENT_THEORY":"SGP4","NORAD_CAT_ID":"52475","INCLINATION":"53.2176","MEAN_ANOMALY":"301.4670","RA_OF_ASC_NODE":"160.9521","CLASSIFICATION_TYPE":"U","BSTAR":"-0.00042245000000","FILE":"3534741","RCS_SIZE":"LARGE","TLE_LINE1":"1 52475U 22049AA  22223.91667824 -.00007008  00000-0 -42245-3 0  9991","EPOCH":"2022-08-11T22:00:00.999936","GP_ID":"210041119","ARG_OF_PERICENTER":"62.8924","SITE":"AFETR","EPHEMERIS_TYPE":"0","MEAN_MOTION_DOT":"-0.00007008","OBJECT_TYPE":"PAYLOAD","CENTER_NAME":"EARTH","MEAN_MOTION":"15.08852144"},{"TLE_LINE1":"1 52476U 22049AB  22223.91667824 -.00014694  00000-0 -90750-3 0  9995","EPOCH":"2022-08-11T22:00:00.999936","GP_ID":"210041150","EPHEMERIS_TYPE":"0","SITE":"AFETR","ARG_OF_PERICENTER":"55.4809","MEAN_MOTION":"15.08820510","MEAN_MOTION_DOT":"-0.00014694","OBJECT_TYPE":"PAYLOAD","CENTER_NAME":"EARTH","REV_AT_EPOCH":"1542","LAUNCH_DATE":"2022-05-06","PERIAPSIS":"538.686","MEAN_ANOMALY":"229.1168","NORAD_CAT_ID":"52476","INCLINATION":"53.2124","MEAN_ELEMENT_THEORY":"SGP4","TIME_SYSTEM":"UTC","RCS_SIZE":"LARGE","FILE":"3534744","BSTAR":"-0.00090750000000","CLASSIFICATION_TYPE":"U","RA_OF_ASC_NODE":"150.9637","APOAPSIS":"540.924","COUNTRY_CODE":"US","PERIOD":"95.439","DECAY_DATE":null,"ELEMENT_SET_NO":"999","OBJECT_NAME":"STARLINK-3835","OBJECT_ID":"2022-049AB","REF_FRAME":"TEME","MEAN_MOTION_DDOT":"0.0000000000000","TLE_LINE2":"2 52476  53.2124 150.9637 0001618  55.4809 229.1168 15.08820510 15422","ECCENTRICITY":"0.00016180","SEMIMAJOR_AXIS":"6917.940"},{"OBJECT_ID":"2022-049AC","REF_FRAME":"TEME","MEAN_MOTION_DDOT":"0.0000000000000","TLE_LINE2":"2 52477  53.2134 150.9667 0001475  45.0080 199.4668 15.08820324 15421","ECCENTRICITY":"0.00014750","SEMIMAJOR_AXIS":"6917.941","APOAPSIS":"540.826","COUNTRY_CODE":"US","DECAY_DATE":null,"PERIOD":"95.439","ELEMENT_SET_NO":"999","OBJECT_NAME":"STARLINK-3860","LAUNCH_DATE":"2022-05-06","REV_AT_EPOCH":"1542","PERIAPSIS":"538.785","MEAN_ANOMALY":"199.4668","INCLINATION":"53.2134","NORAD_CAT_ID":"52477","MEAN_ELEMENT_THEORY":"SGP4","TIME_SYSTEM":"UTC","RCS_SIZE":"LARGE","FILE":"3534741","BSTAR":"-0.00115270000000","CLASSIFICATION_TYPE":"U","RA_OF_ASC_NODE":"150.9667","TLE_LINE1":"1 52477U 22049AC  22223.91667824 -.00018576  00000-0 -11527-2 0  9993","EPOCH":"2022-08-11T22:00:00.999936","GP_ID":"210041115","EPHEMERIS_TYPE":"0","SITE":"AFETR","ARG_OF_PERICENTER":"45.0080","MEAN_MOTION":"15.08820324","CENTER_NAME":"EARTH","OBJECT_TYPE":"PAYLOAD","MEAN_MOTION_DOT":"-0.00018576"},{"SEMIMAJOR_AXIS":"6917.923","ECCENTRICITY":"0.00024970","TLE_LINE2":"2 52478  53.2177 162.4459 0002497  63.2823 334.7064 15.08826032  1306","MEAN_MOTION_DDOT":"0.0000000000000","REF_FRAME":"TEME","OBJECT_ID":"2022-049AD","OBJECT_NAME":"STARLINK-3825","ELEMENT_SET_NO":"999","DECAY_DATE":null,"PERIOD":"95.438","COUNTRY_CODE":"US","APOAPSIS":"541.515","RA_OF_ASC_NODE":"162.4459","CLASSIFICATION_TYPE":"U","FILE":"3534319","BSTAR":"0.00012087000000","RCS_SIZE":"LARGE","MEAN_ELEMENT_THEORY":"SGP4","TIME_SYSTEM":"UTC","INCLINATION":"53.2177","NORAD_CAT_ID":"52478","MEAN_ANOMALY":"334.7064","PERIAPSIS":"538.061","LAUNCH_DATE":"2022-05-06","REV_AT_EPOCH":"130","CENTER_NAME":"EARTH","OBJECT_TYPE":"PAYLOAD","MEAN_MOTION_DOT":"0.00001635","MEAN_MOTION":"15.08826032","ARG_OF_PERICENTER":"63.2823","SITE":"AFETR","EPHEMERIS_TYPE":"0","EPOCH":"2022-08-11T14:00:01.000224","GP_ID":"210030947","TLE_LINE1":"1 52478U 22049AD  22223.58334491  .00001635  00000-0  12087-3 0  9997"}];
